[{"OBJECT_NAME":"SL-12 R/B(2)","OBJECT_ID":"1987-028D","EPOCH":"2026-04-26T09:57:30.098016","MEAN_MOTION":0.99877723,"ECCENTRICITY":0.00257071,"INCLINATION":11.2201,"RA_OF_ASC_NODE":321.1663,"ARG_OF_PERICENTER":113.7239,"MEAN_ANOMALY":250.1725,"EPHEMERIS_TYPE":0,"CLASSIFICATION_TYPE":"U","NORAD_CAT_ID":17705,"ELEMENT_SET_NO":999,"REV_AT_EPOCH":14395,"BSTAR":0,"MEAN_MOTION_DOT":-3.13e-6,"MEAN_MOTION_DDOT":0},{"OBJECT_NAME":"AGILA 1 (PALAPA B2P)","OBJECT_ID":"1987-029A","EPOCH":"2026-04-26T18:22:38.799840","MEAN_MOTION":0.99903765,"ECCENTRICITY":0.00031561,"INCLINATION":14.3916,"RA_OF_ASC_NODE":348.5707,"ARG_OF_PERICENTER":33.5897,"MEAN_ANOMALY":162.3011,"EPHEMERIS_TYPE":0,"CLASSIFICATION_TYPE":"U","NORAD_CAT_ID":17706,"ELEMENT_SET_NO":999,"REV_AT_EPOCH":4201,"BSTAR":0,"MEAN_MOTION_DOT":8.3e-7,"MEAN_MOTION_DDOT":0},{"OBJECT_NAME":"SL-12 R/B(2)","OBJECT_ID":"1976-092F","EPOCH":"2026-04-26T23:02:21.643008","MEAN_MOTION":1.00220783,"ECCENTRICITY":0.00155704,"INCLINATION":3.5934,"RA_OF_ASC_NODE":270.8865,"ARG_OF_PERICENTER":194.4553,"MEAN_ANOMALY":170.2533,"EPHEMERIS_TYPE":0,"CLASSIFICATION_TYPE":"U","NORAD_CAT_ID":17872,"ELEMENT_SET_NO":999,"REV_AT_EPOCH":11841,"BSTAR":0,"MEAN_MOTION_DOT":-9.2e-7,"MEAN_MOTION_DDOT":0},{"OBJECT_NAME":"SL-12 R/B(2)","OBJECT_ID":"1979-035E","EPOCH":"2026-04-26T22:20:58.387776","MEAN_MOTION":1.00169757,"ECCENTRICITY":0.00255692,"INCLINATION":5.3487,"RA_OF_ASC_NODE":282.5667,"ARG_OF_PERICENTER":252.6662,"MEAN_ANOMALY":35.2357,"EPHEMERIS_TYPE":0,"CLASSIFICATION_TYPE":"U","NORAD_CAT_ID":17873,"ELEMENT_SET_NO":999,"REV_AT_EPOCH":18465,"BSTAR":0,"MEAN_MOTION_DOT":9.0e-7,"MEAN_MOTION_DDOT":0},{"OBJECT_NAME":"SL-12 R/B(2)","OBJECT_ID":"1984-016F","EPOCH":"2026-04-26T15:33:14.092992","MEAN_MOTION":1.00312617,"ECCENTRICITY":0.00340578,"INCLINATION":8.6737,"RA_OF_ASC_NODE":311.2347,"ARG_OF_PERICENTER":228.6549,"MEAN_ANOMALY":326.314,"EPHEMERIS_TYPE":0,"CLASSIFICATION_TYPE":"U","NORAD_CAT_ID":17874,"ELEMENT_SET_NO":999,"REV_AT_EPOCH":12233,"BSTAR":0,"MEAN_MOTION_DOT":1.7e-7,"MEAN_MOTION_DDOT":0},{"OBJECT_NAME":"SL-12 R/B(2)","OBJECT_ID":"1979-087C","EPOCH":"2026-04-26T20:17:48.759072","MEAN_MOTION":1.00465578,"ECCENTRICITY":0.00421328,"INCLINATION":5.4645,"RA_OF_ASC_NODE":283.9326,"ARG_OF_PERICENTER":358.3462,"MEAN_ANOMALY":212.933,"EPHEMERIS_TYPE":0,"CLASSIFICATION_TYPE":"U","NORAD_CAT_ID":17939,"ELEMENT_SET_NO":999,"REV_AT_EPOCH":4692,"BSTAR":0,"MEAN_MOTION_DOT":-1.74e-6,"MEAN_MOTION_DDOT":0},{"OBJECT_NAME":"COSMOS 1888","OBJECT_ID":"1987-084A","EPOCH":"2026-04-26T13:58:31.107072","MEAN_MOTION":1.0015311,"ECCENTRICITY":0.0001242,"INCLINATION":10.8702,"RA_OF_ASC_NODE":326.4213,"ARG_OF_PERICENTER":295.4551,"MEAN_ANOMALY":248.2423,"EPHEMERIS_TYPE":0,"CLASSIFICATION_TYPE":"U","NORAD_CAT_ID":18384,"ELEMENT_SET_NO":999,"REV_AT_EPOCH":14117,"BSTAR":0,"MEAN_MOTION_DOT":-2.06e-6,"MEAN_MOTION_DDOT":0},{"OBJECT_NAME":"SL-12 R/B(2)","OBJECT_ID":"1987-084D","EPOCH":"2026-04-26T21:09:06.111072","MEAN_MOTION":1.00062907,"ECCENTRICITY":0.0028608,"INCLINATION":11.0236,"RA_OF_ASC_NODE":327.0132,"ARG_OF_PERICENTER":251.3085,"MEAN_ANOMALY":109.1566,"EPHEMERIS_TYPE":0,"CLASSIFICATION_TYPE":"U","NORAD_CAT_ID":18387,"ELEMENT_SET_NO":999,"REV_AT_EPOCH":14826,"BSTAR":0,"MEAN_MOTION_DOT":-2.36e-6,"MEAN_MOTION_DDOT":0},{"OBJECT_NAME":"COSMOS 1894","OBJECT_ID":"1987-091A","EPOCH":"2026-04-26T20:18:11.223072","MEAN_MOTION":1.00257762,"ECCENTRICITY":0.00048708,"INCLINATION":10.8283,"RA_OF_ASC_NODE":325.8827,"ARG_OF_PERICENTER":24.1926,"MEAN_ANOMALY":146.4395,"EPHEMERIS_TYPE":0,"CLASSIFICATION_TYPE":"U","NORAD_CAT_ID":18443,"ELEMENT_SET_NO":999,"REV_AT_EPOCH":12030,"BSTAR":0,"MEAN_MOTION_DOT":-2.17e-6,"MEAN_MOTION_DDOT":0},{"OBJECT_NAME":"SL-12 R/B(2)","OBJECT_ID":"1987-091D","EPOCH":"2026-04-26T21:04:14.078208","MEAN_MOTION":1.00216755,"ECCENTRICITY":0.00217885,"INCLINATION":10.8621,"RA_OF_ASC_NODE":326.0509,"ARG_OF_PERICENTER":266.5978,"MEAN_ANOMALY":76.0643,"EPHEMERIS_TYPE":0,"CLASSIFICATION_TYPE":"U","NORAD_CAT_ID":18446,"ELEMENT_SET_NO":999,"REV_AT_EPOCH":12948,"BSTAR":0,"MEAN_MOTION_DOT":-3.41e-6,"MEAN_MOTION_DDOT":0},{"OBJECT_NAME":"TVSAT 1","OBJECT_ID":"1987-095A","EPOCH":"2026-04-26T22:00:31.178592","MEAN_MOTION":0.98922388,"ECCENTRICITY":0.00628921,"INCLINATION":11.3215,"RA_OF_ASC_NODE":328.3146,"ARG_OF_PERICENTER":130.917,"MEAN_ANOMALY":61.1528,"EPHEMERIS_TYPE":0,"CLASSIFICATION_TYPE":"U","NORAD_CAT_ID":18570,"ELEMENT_SET_NO":999,"REV_AT_EPOCH":12833,"BSTAR":0,"MEAN_MOTION_DOT":-2.73e-6,"MEAN_MOTION_DDOT":0},{"OBJECT_NAME":"COSMOS 1897","OBJECT_ID":"1987-096A","EPOCH":"2026-04-26T22:07:59.295648","MEAN_MOTION":1.00322469,"ECCENTRICITY":0.00065645,"INCLINATION":11.0971,"RA_OF_ASC_NODE":327.2408,"ARG_OF_PERICENTER":131.9331,"MEAN_ANOMALY":168.1459,"EPHEMERIS_TYPE":0,"CLASSIFICATION_TYPE":"U","NORAD_CAT_ID":18575,"ELEMENT_SET_NO":999,"REV_AT_EPOCH":14067,"BSTAR":0,"MEAN_MOTION_DOT":-1.92e-6,"MEAN_MOTION_DDOT":0},{"OBJECT_NAME":"SL-12 R/B(2)","OBJECT_ID":"1987-096D","EPOCH":"2026-04-26T22:00:53.642592","MEAN_MOTION":1.00558525,"ECCENTRICITY":0.00217439,"INCLINATION":10.8891,"RA_OF_ASC_NODE":326.5068,"ARG_OF_PERICENTER":249.1329,"MEAN_ANOMALY":306.9067,"EPHEMERIS_TYPE":0,"CLASSIFICATION_TYPE":"U","NORAD_CAT_ID":18578,"ELEMENT_SET_NO":999,"REV_AT_EPOCH":13751,"BSTAR":0,"MEAN_MOTION_DOT":-1.67e-6,"MEAN_MOTION_DDOT":0},{"OBJECT_NAME":"RADUGA 21","OBJECT_ID":"1987-100A","EPOCH":"2026-04-26T14:46:41.056608","MEAN_MOTION":1.00362616,"ECCENTRICITY":0.00010983,"INCLINATION":11.3806,"RA_OF_ASC_NODE":325.6367,"ARG_OF_PERICENTER":317.4484,"MEAN_ANOMALY":48.1603,"EPHEMERIS_TYPE":0,"CLASSIFICATION_TYPE":"U","NORAD_CAT_ID":18631,"ELEMENT_SET_NO":999,"REV_AT_EPOCH":14057,"BSTAR":0,"MEAN_MOTION_DOT":-1.46e-6,"MEAN_MOTION_DDOT":0},{"OBJECT_NAME":"SL-12 R/B(2)","OBJECT_ID":"1987-109D","EPOCH":"2026-04-26T20:19:26.103360","MEAN_MOTION":1.00828032,"ECCENTRICITY":0.00671134,"INCLINATION":10.9568,"RA_OF_ASC_NODE":326.9912,"ARG_OF_PERICENTER":279.5427,"MEAN_ANOMALY":255.1059,"EPHEMERIS_TYPE":0,"CLASSIFICATION_TYPE":"U","NORAD_CAT_ID":18718,"ELEMENT_SET_NO":999,"REV_AT_EPOCH":13154,"BSTAR":0,"MEAN_MOTION_DOT":-8.7e-7,"MEAN_MOTION_DDOT":0},{"OBJECT_NAME":"COSMOS 1922","OBJECT_ID":"1988-013A","EPOCH":"2026-04-25T13:02:11.668704","MEAN_MOTION":2.00614996,"ECCENTRICITY":0.58935491,"INCLINATION":68.736,"RA_OF_ASC_NODE":75.4991,"ARG_OF_PERICENTER":45.1286,"MEAN_ANOMALY":349.654,"EPHEMERIS_TYPE":0,"CLASSIFICATION_TYPE":"U","NORAD_CAT_ID":18881,"ELEMENT_SET_NO":999,"REV_AT_EPOCH":27947,"BSTAR":0,"MEAN_MOTION_DOT":7.43e-6,"MEAN_MOTION_DDOT":0},{"OBJECT_NAME":"SL-6 R/B(2)","OBJECT_ID":"1988-013C","EPOCH":"2026-04-14T12:45:14.643936","MEAN_MOTION":2.04039649,"ECCENTRICITY":0.660195,"INCLINATION":65.0471,"RA_OF_ASC_NODE":298.7582,"ARG_OF_PERICENTER":24.4984,"MEAN_ANOMALY":101.8932,"EPHEMERIS_TYPE":0,"CLASSIFICATION_TYPE":"U","NORAD_CAT_ID":18883,"ELEMENT_SET_NO":999,"REV_AT_EPOCH":28397,"BSTAR":0,"MEAN_MOTION_DOT":-1.01e-6,"MEAN_MOTION_DDOT":0},{"OBJECT_NAME":"STTW-2","OBJECT_ID":"1988-014A","EPOCH":"2026-04-26T15:37:58.638432","MEAN_MOTION":1.00305031,"ECCENTRICITY":0.00036652,"INCLINATION":13.3053,"RA_OF_ASC_NODE":340.0622,"ARG_OF_PERICENTER":172.7949,"MEAN_ANOMALY":11.0008,"EPHEMERIS_TYPE":0,"CLASSIFICATION_TYPE":"U","NORAD_CAT_ID":18922,"ELEMENT_SET_NO":999,"REV_AT_EPOCH":13959,"BSTAR":0,"MEAN_MOTION_DOT":-1.26e-6,"MEAN_MOTION_DDOT":0},{"OBJECT_NAME":"SL-6 R/B(2)","OBJECT_ID":"1988-017D","EPOCH":"2026-04-25T07:33:13.707936","MEAN_MOTION":2.10126532,"ECCENTRICITY":0.70772915,"INCLINATION":62.3257,"RA_OF_ASC_NODE":202.5377,"ARG_OF_PERICENTER":260.8283,"MEAN_ANOMALY":19.9947,"EPHEMERIS_TYPE":0,"CLASSIFICATION_TYPE":"U","NORAD_CAT_ID":18949,"ELEMENT_SET_NO":999,"REV_AT_EPOCH":27176,"BSTAR":0,"MEAN_MOTION_DOT":-2.7e-6,"MEAN_MOTION_DDOT":0},{"OBJECT_NAME":"SPACENET 3R","OBJECT_ID":"1988-018A","EPOCH":"2026-04-26T02:57:38.532096","MEAN_MOTION":0.99658905,"ECCENTRICITY":0.00036944,"INCLINATION":14.6901,"RA_OF_ASC_NODE":0.0827,"ARG_OF_PERICENTER":296.2487,"MEAN_ANOMALY":246.9892,"EPHEMERIS_TYPE":0,"CLASSIFICATION_TYPE":"U","NORAD_CAT_ID":18951,"ELEMENT_SET_NO":999,"REV_AT_EPOCH":12409,"BSTAR":0,"MEAN_MOTION_DOT":-2.12e-6,"MEAN_MOTION_DDOT":0},{"OBJECT_NAME":"COSMOS 1940","OBJECT_ID":"1988-034A","EPOCH":"2026-04-26T15:35:21.388704","MEAN_MOTION":1.00675542,"ECCENTRICITY":0.00215548,"INCLINATION":11.0394,"RA_OF_ASC_NODE":326.9181,"ARG_OF_PERICENTER":297.0704,"MEAN_ANOMALY":250.0044,"EPHEMERIS_TYPE":0,"CLASSIFICATION_TYPE":"U","NORAD_CAT_ID":19073,"ELEMENT_SET_NO":999,"REV_AT_EPOCH":12083,"BSTAR":0,"MEAN_MOTION_DOT":-1.28e-6,"MEAN_MOTION_DDOT":0},{"OBJECT_NAME":"SL-12 R/B(2)","OBJECT_ID":"1988-034D","EPOCH":"2026-04-26T17:58:24.120192","MEAN_MOTION":1.00101746,"ECCENTRICITY":0.00221223,"INCLINATION":11.339,"RA_OF_ASC_NODE":327.9189,"ARG_OF_PERICENTER":189.5838,"MEAN_ANOMALY":173.7368,"EPHEMERIS_TYPE":0,"CLASSIFICATION_TYPE":"U","NORAD_CAT_ID":19076,"ELEMENT_SET_NO":999,"REV_AT_EPOCH":13859,"BSTAR":0,"MEAN_MOTION_DOT":8.5e-7,"MEAN_MOTION_DDOT":0},{"OBJECT_NAME":"SL-12 R/B(2)","OBJECT_ID":"1988-036E","EPOCH":"2026-04-26T21:10:50.943648","MEAN_MOTION":1.0111143,"ECCENTRICITY":0.00206359,"INCLINATION":10.2367,"RA_OF_ASC_NODE":323.0003,"ARG_OF_PERICENTER":183.9157,"MEAN_ANOMALY":187.379,"EPHEMERIS_TYPE":0,"CLASSIFICATION_TYPE":"U","NORAD_CAT_ID":19094,"ELEMENT_SET_NO":999,"REV_AT_EPOCH":12131,"BSTAR":0,"MEAN_MOTION_DOT":-1.0e-8,"MEAN_MOTION_DDOT":0},{"OBJECT_NAME":"INSAT-1C","OBJECT_ID":"1988-063A","EPOCH":"2026-04-26T22:07:59.712096","MEAN_MOTION":1.00231141,"ECCENTRICITY":0.00066793,"INCLINATION":11.3926,"RA_OF_ASC_NODE":328.123,"ARG_OF_PERICENTER":127.6258,"MEAN_ANOMALY":172.3573,"EPHEMERIS_TYPE":0,"CLASSIFICATION_TYPE":"U","NORAD_CAT_ID":19330,"ELEMENT_SET_NO":999,"REV_AT_EPOCH":11982,"BSTAR":0,"MEAN_MOTION_DOT":-1.8e-6,"MEAN_MOTION_DDOT":0}]
